[{"OBJECT_NAME":"STARLINK-4402","OBJECT_ID":"2022-099AW","EPOCH":"2026-03-09T22:18:27.532512","MEAN_MOTION":15.01261175,"ECCENTRICITY":0.00033134,"INCLINATION":97.6025,"RA_OF_ASC_NODE":190.4528,"ARG_OF_PERICENTER":77.792,"MEAN_ANOMALY":282.3676,"EPHEMERIS_TYPE":0,"CLASSIFICATION_TYPE":"U","NORAD_CAT_ID":53509,"ELEMENT_SET_NO":999,"REV_AT_EPOCH":19602,"BSTAR":9.353915e-6,"MEAN_MOTION_DOT":6.2e-7,"MEAN_MOTION_DDOT":0},{"OBJECT_NAME":"CZ-6A DEB","OBJECT_ID":"2022-151NQ","EPOCH":"2026-03-09T17:05:31.837920","MEAN_MOTION":14.96919824,"ECCENTRICITY":0.00482154,"INCLINATION":98.6429,"RA_OF_ASC_NODE":147.6002,"ARG_OF_PERICENTER":185.0484,"MEAN_ANOMALY":175.0256,"EPHEMERIS_TYPE":0,"CLASSIFICATION_TYPE":"U","NORAD_CAT_ID":54614,"ELEMENT_SET_NO":999,"REV_AT_EPOCH":10489,"BSTAR":0.0050921909,"MEAN_MOTION_DOT":0.00060273,"MEAN_MOTION_DDOT":0}]
